{
  "type": "FeatureCollection",
  "features": [
    {
      "type": "Feature",
      "properties": {
        "norad_id": 43057,
        "name": "GSAT0217 (GALILEO 21)",
        "group": "gnss",
        "lat": -48.84237975414036,
        "lon": 99.14400899765502,
        "alt_km": 23231.311918708016,
        "timestamp": "2025-12-27T11:23:20.140950+00:00",
        "meta_object_name": "GSAT0217 (GALILEO 21)",
        "meta_object_id": "2017-079C",
        "meta_epoch": "2025-12-24T03:21:20.619936",
        "meta_mean_motion": 1.70473665,
        "meta_eccentricity": 0.00026088,
        "meta_inclination": 55.1247,
        "meta_ra_of_asc_node": 226.3216,
        "meta_arg_of_pericenter": 4.3447,
        "meta_mean_anomaly": 355.754,
        "meta_ephemeris_type": 0,
        "meta_classification_type": "U",
        "meta_norad_cat_id": 43057,
        "meta_element_set_no": 999,
        "meta_rev_at_epoch": 5000,
        "meta_bstar": 0,
        "meta_mean_motion_dot": 7.2e-07,
        "meta_mean_motion_ddot": 0,
        "tle_line1": "1 43057U 17079C   25358.13982199  .00000072  00000+0  00000+0 0  9995",
        "tle_line2": "2 43057  55.1247 226.3216 0002608   4.3447 355.7540  1.70473665 50008"
      },
      "geometry": {
        "type": "Point",
        "coordinates": [
          99.14400899765502,
          -48.84237975414036
        ]
      }
    },
    {
      "type": "Feature",
      "properties": {
        "norad_id": 43058,
        "name": "GSAT0218 (GALILEO 22)",
        "group": "gnss",
        "lat": 49.70824680754392,
        "lon": -9.080515342046366,
        "alt_km": 23222.842440535267,
        "timestamp": "2025-12-27T11:23:20.140961+00:00",
        "meta_object_name": "GSAT0218 (GALILEO 22)",
        "meta_object_id": "2017-079D",
        "meta_epoch": "2025-12-22T00:19:29.615808",
        "meta_mean_motion": 1.70473914,
        "meta_eccentricity": 0.00024164,
        "meta_inclination": 55.1256,
        "meta_ra_of_asc_node": 226.3779,
        "meta_arg_of_pericenter": 315.4078,
        "meta_mean_anomaly": 44.6792,
        "meta_ephemeris_type": 0,
        "meta_classification_type": "U",
        "meta_norad_cat_id": 43058,
        "meta_element_set_no": 999,
        "meta_rev_at_epoch": 4999,
        "meta_bstar": 0,
        "meta_mean_motion_dot": 7.3e-07,
        "meta_mean_motion_ddot": 0,
        "tle_line1": "1 43058U 17079D   25356.01353722  .00000073  00000+0  00000+0 0  9996",
        "tle_line2": "2 43058  55.1256 226.3779 0002416 315.4078  44.6792  1.70473914 49992"
      },
      "geometry": {
        "type": "Point",
        "coordinates": [
          -9.080515342046366,
          49.70824680754392
        ]
      }
    },
    {
      "type": "Feature",
      "properties": {
        "norad_id": 43107,
        "name": "BEIDOU-3 M7 (C27)",
        "group": "gnss",
        "lat": -27.229153279860203,
        "lon": -73.25240171303746,
        "alt_km": 21532.88822815556,
        "timestamp": "2025-12-27T11:23:20.140975+00:00",
        "meta_object_name": "BEIDOU-3 M7 (C27)",
        "meta_object_id": "2018-003A",
        "meta_epoch": "2025-12-26T23:43:35.331168",
        "meta_mean_motion": 1.86232541,
        "meta_eccentricity": 0.0002959,
        "meta_inclination": 54.484,
        "meta_ra_of_asc_node": 308.3202,
        "meta_arg_of_pericenter": 66.0283,
        "meta_mean_anomaly": 294.0099,
        "meta_ephemeris_type": 0,
        "meta_classification_type": "U",
        "meta_norad_cat_id": 43107,
        "meta_element_set_no": 999,
        "meta_rev_at_epoch": 5414,
        "meta_bstar": 0,
        "meta_mean_motion_dot": -5.9e-07,
        "meta_mean_motion_ddot": 0,
        "tle_line1": "1 43107U 18003A   25360.98860337 -.00000059  00000+0  00000+0 0  9990",
        "tle_line2": "2 43107  54.4840 308.3202 0002959  66.0283 294.0099  1.86232541 54149"
      },
      "geometry": {
        "type": "Point",
        "coordinates": [
          -73.25240171303746,
          -27.229153279860203
        ]
      }
    },
    {
      "type": "Feature",
      "properties": {
        "norad_id": 43108,
        "name": "BEIDOU-3 M8 (C28)",
        "group": "gnss",
        "lat": 2.1658997232399297,
        "lon": -50.18394001779831,
        "alt_km": 21526.48189709498,
        "timestamp": "2025-12-27T11:23:20.140987+00:00",
        "meta_object_name": "BEIDOU-3 M8 (C28)",
        "meta_object_id": "2018-003B",
        "meta_epoch": "2025-12-24T05:58:21.185184",
        "meta_mean_motion": 1.86231107,
        "meta_eccentricity": 0.00045887,
        "meta_inclination": 54.4794,
        "meta_ra_of_asc_node": 308.398,
        "meta_arg_of_pericenter": 279.3969,
        "meta_mean_anomaly": 80.5568,
        "meta_ephemeris_type": 0,
        "meta_classification_type": "U",
        "meta_norad_cat_id": 43108,
        "meta_element_set_no": 999,
        "meta_rev_at_epoch": 5410,
        "meta_bstar": 0,
        "meta_mean_motion_dot": -5.4e-07,
        "meta_mean_motion_ddot": 0,
        "tle_line1": "1 43108U 18003B   25358.24885631 -.00000054  00000+0  00000+0 0  9996",
        "tle_line2": "2 43108  54.4794 308.3980 0004588 279.3969  80.5568  1.86231107 54103"
      },
      "geometry": {
        "type": "Point",
        "coordinates": [
          -50.18394001779831,
          2.1658997232399297
        ]
      }
    },
    {
      "type": "Feature",
      "properties": {
        "norad_id": 43207,
        "name": "BEIDOU-3 M4 (C22)",
        "group": "gnss",
        "lat": 49.82189913811047,
        "lon": 120.41281360925231,
        "alt_km": 21517.19072974727,
        "timestamp": "2025-12-27T11:23:20.141000+00:00",
        "meta_object_name": "BEIDOU-3 M4 (C22)",
        "meta_object_id": "2018-018A",
        "meta_epoch": "2025-12-25T18:21:17.493120",
        "meta_mean_motion": 1.86231089,
        "meta_eccentricity": 0.00042291,
        "meta_inclination": 56.4961,
        "meta_ra_of_asc_node": 68.874,
        "meta_arg_of_pericenter": 1.268,
        "meta_mean_anomaly": 358.7861,
        "meta_ephemeris_type": 0,
        "meta_classification_type": "U",
        "meta_norad_cat_id": 43207,
        "meta_element_set_no": 999,
        "meta_rev_at_epoch": 5351,
        "meta_bstar": 0,
        "meta_mean_motion_dot": -2.7e-07,
        "meta_mean_motion_ddot": 0,
        "tle_line1": "1 43207U 18018A   25359.76478580 -.00000027  00000+0  00000+0 0  9991",
        "tle_line2": "2 43207  56.4961  68.8740 0004229   1.2680 358.7861  1.86231089 53516"
      },
      "geometry": {
        "type": "Point",
        "coordinates": [
          120.41281360925231,
          49.82189913811047
        ]
      }
    },
    {
      "type": "Feature",
      "properties": {
        "norad_id": 43208,
        "name": "BEIDOU-3 M3 (C21)",
        "group": "gnss",
        "lat": 17.992954173149425,
        "lon": 81.24455565782513,
        "alt_km": 21518.413526472883,
        "timestamp": "2025-12-27T11:23:20.141012+00:00",
        "meta_object_name": "BEIDOU-3 M3 (C21)",
        "meta_object_id": "2018-018B",
        "meta_epoch": "2025-12-26T08:50:15.779616",
        "meta_mean_motion": 1.86231383,
        "meta_eccentricity": 0.0007147,
        "meta_inclination": 56.4961,
        "meta_ra_of_asc_node": 68.858,
        "meta_arg_of_pericenter": 313.9083,
        "meta_mean_anomaly": 46.0843,
        "meta_ephemeris_type": 0,
        "meta_classification_type": "U",
        "meta_norad_cat_id": 43208,
        "meta_element_set_no": 999,
        "meta_rev_at_epoch": 5352,
        "meta_bstar": 0,
        "meta_mean_motion_dot": -3e-07,
        "meta_mean_motion_ddot": 0,
        "tle_line1": "1 43208U 18018B   25360.36823819 -.00000030  00000+0  00000+0 0  9993",
        "tle_line2": "2 43208  56.4961  68.8580 0007147 313.9083  46.0843  1.86231383 53526"
      },
      "geometry": {
        "type": "Point",
        "coordinates": [
          81.24455565782513,
          17.992954173149425
        ]
      }
    },
    {
      "type": "Feature",
      "properties": {
        "norad_id": 43245,
        "name": "BEIDOU-3 M9 (C29)",
        "group": "gnss",
        "lat": -42.77975372351226,
        "lon": 167.49845342686632,
        "alt_km": 21530.84841741866,
        "timestamp": "2025-12-27T11:23:20.141023+00:00",
        "meta_object_name": "BEIDOU-3 M9 (C29)",
        "meta_object_id": "2018-029A",
        "meta_epoch": "2025-12-26T14:01:45.970176",
        "meta_mean_motion": 1.86228127,
        "meta_eccentricity": 0.00015403,
        "meta_inclination": 54.3532,
        "meta_ra_of_asc_node": 305.9861,
        "meta_arg_of_pericenter": 291.5798,
        "meta_mean_anomaly": 68.4134,
        "meta_ephemeris_type": 0,
        "meta_classification_type": "U",
        "meta_norad_cat_id": 43245,
        "meta_element_set_no": 999,
        "meta_rev_at_epoch": 5268,
        "meta_bstar": 0,
        "meta_mean_motion_dot": -5.7e-07,
        "meta_mean_motion_ddot": 0,
        "tle_line1": "1 43245U 18029A   25360.58455984 -.00000057  00000+0  00000+0 0  9993",
        "tle_line2": "2 43245  54.3532 305.9861 0001540 291.5798  68.4134  1.86228127 52689"
      },
      "geometry": {
        "type": "Point",
        "coordinates": [
          167.49845342686632,
          -42.77975372351226
        ]
      }
    }
  ]
}